CTC1_L_00426001-01
1 34907U 23689WS  26070.40836806  .00000000  00000+0  00000-0 0  9990
2 34907 100.0000   0.0000 0000000   0.0000   0.0000 12.65579349    18
CTC1_L_00426001-02
1 34908U 23304AD  26070.40836806  .00000000  00000+0  00000-0 0  9995
2 34908 100.0000   0.0000 0000000   0.0000  90.0000 12.65579349    18
CTC1_L_00426001-03
1 34909U 23789RC  26070.40836806  .00000000  00000+0  00000-0 0  9993
2 34909 100.0000   0.0000 0000000   0.0000 180.0000 12.65579349    19
CTC1_L_00426001-04
1 34910U 23071G   26070.40836806  .00000000  00000+0  00000-0 0  9999
2 34910 100.0000   0.0000 0000000   0.0000 270.0000 12.65579349    11
CTC1_L_00426002-01
1 34911U 26106TT  26070.40836806  .00000000  00000+0  00000-0 0  9992
2 34911 100.0000  12.0000 0000000   0.0000  12.0000 12.65579349    19
CTC1_L_00426002-02
1 34912U 26746F   26070.40836806  .00000000  00000+0  00000-0 0  9993
2 34912 100.0000  12.0000 0000000   0.0000 102.0000 12.65579349    10
CTC1_L_00426002-03
1 34913U 25684LG  26070.40836806  .00000000  00000+0  00000-0 0  9994
2 34913 100.0000  12.0000 0000000   0.0000 192.0000 12.65579349    10
CTC1_L_00426002-04
1 34914U 25508TJ  26070.40836806  .00000000  00000+0  00000-0 0  9990
2 34914 100.0000  12.0000 0000000   0.0000 282.0000 12.65579349    11
CTC1_L_00426003-01
1 34915U 23593KW  26070.40836806  .00000000  00000+0  00000-0 0  9993
2 34915 100.0000  24.0000 0000000   0.0000  24.0000 12.65579349    19
CTC1_L_00426003-02
1 34916U 24820KY  26070.40836806  .00000000  00000+0  00000-0 0  9998
2 34916 100.0000  24.0000 0000000   0.0000 114.0000 12.65579349    10
CTC1_L_00426003-03
1 34917U 24119XA  26070.40836806  .00000000  00000+0  00000-0 0  9990
2 34917 100.0000  24.0000 0000000   0.0000 204.0000 12.65579349    11
CTC1_L_00426003-04
1 34918U 25777PS  26070.40836806  .00000000  00000+0  00000-0 0  9992
2 34918 100.0000  24.0000 0000000   0.0000 294.0000 12.65579349    11
CTC1_L_00426004-01
1 34919U 22347XU  26070.40836806  .00000000  00000+0  00000-0 0  9993
2 34919 100.0000  36.0000 0000000   0.0000  36.0000 12.65579349    19
CTC1_L_00426004-02
1 34920U 24963MU  26070.40836806  .00000000  00000+0  00000-0 0  9991
2 34920 100.0000  36.0000 0000000   0.0000 126.0000 12.65579349    11
CTC1_L_00426004-03
1 34921U 25288EY  26070.40836806  .00000000  00000+0  00000-0 0  9993
2 34921 100.0000  36.0000 0000000   0.0000 216.0000 12.65579349    12
CTC1_L_00426004-04
1 34922U 22494MJ  26070.40836806  .00000000  00000+0  00000-0 0  9990
2 34922 100.0000  36.0000 0000000   0.0000 306.0000 12.65579349    13
CTC1_L_00426005-01
1 34923U 23820KD  26070.40836806  .00000000  00000+0  00000-0 0  9995
2 34923 100.0000  48.0000 0000000   0.0000  48.0000 12.65579349    10
CTC1_L_00426005-02
1 34924U 22999JP  26070.40836806  .00000000  00000+0  00000-0 0  9992
2 34924 100.0000  48.0000 0000000   0.0000 138.0000 12.65579349    11
CTC1_L_00426005-03
1 34925U 24807AB  26070.40836806  .00000000  00000+0  00000-0 0  9993
2 34925 100.0000  48.0000 0000000   0.0000 228.0000 12.65579349    12
CTC1_L_00426005-04
1 34926U 22108QT  26070.40836806  .00000000  00000+0  00000-0 0  9996
2 34926 100.0000  48.0000 0000000   0.0000 318.0000 12.65579349    13
CTC1_L_00426006-01
1 34927U 26465RB  26070.40836806  .00000000  00000+0  00000-0 0  9997
2 34927 100.0000  60.0000 0000000   0.0000  60.0000 12.65579349    12
CTC1_L_00426006-02
1 34928U 23495FX  26070.40836806  .00000000  00000+0  00000-0 0  9998
2 34928 100.0000  60.0000 0000000   0.0000 150.0000 12.65579349    13
CTC1_L_00426006-03
1 34929U 26326QR  26070.40836806  .00000000  00000+0  00000-0 0  9995
2 34929 100.0000  60.0000 0000000   0.0000 240.0000 12.65579349    14
CTC1_L_00426006-04
1 34930U 22117HR  26070.40836806  .00000000  00000+0  00000-0 0  9991
2 34930 100.0000  60.0000 0000000   0.0000 330.0000 12.65579349    16
CTC1_L_00426007-01
1 34931U 26170WT  26070.40836806  .00000000  00000+0  00000-0 0  9995
2 34931 100.0000  72.0000 0000000   0.0000  72.0000 12.65579349    13
CTC1_L_00426007-02
1 34932U 23349DU  26070.40836806  .00000000  00000+0  00000-0 0  9991
2 34932 100.0000  72.0000 0000000   0.0000 162.0000 12.65579349    14
CTC1_L_00426007-03
1 34933U 26966GB  26070.40836806  .00000000  00000+0  00000-0 0  9990
2 34933 100.0000  72.0000 0000000   0.0000 252.0000 12.65579349    15
CTC1_L_00426007-04
1 34934U 24340XI  26070.40836806  .00000000  00000+0  00000-0 0  9995
2 34934 100.0000  72.0000 0000000   0.0000 342.0000 12.65579349    16
CTC1_L_00426008-01
1 34935U 23069YH  26070.40836806  .00000000  00000+0  00000-0 0  9993
2 34935 100.0000  84.0000 0000000   0.0000  84.0000 12.65579349    13
CTC1_L_00426008-02
1 34936U 22843UO  26070.40836806  .00000000  00000+0  00000-0 0  9993
2 34936 100.0000  84.0000 0000000   0.0000 174.0000 12.65579349    14
CTC1_L_00426008-03
1 34937U 23570UB  26070.40836806  .00000000  00000+0  00000-0 0  9992
2 34937 100.0000  84.0000 0000000   0.0000 264.0000 12.65579349    15
CTC1_L_00426008-04
1 34938U 26096LE  26070.40836806  .00000000  00000+0  00000-0 0  9999
2 34938 100.0000  84.0000 0000000   0.0000 354.0000 12.65579349    16
CTC1_L_00426009-01
1 34939U 22396KC  26070.40836806  .00000000  00000+0  00000-0 0  9999
2 34939 100.0000  96.0000 0000000   0.0000  96.0000 12.65579349    13
CTC1_L_00426009-02
1 34940U 26338JB  26070.40836806  .00000000  00000+0  00000-0 0  9991
2 34940 100.0000  96.0000 0000000   0.0000 186.0000 12.65579349    15
CTC1_L_00426009-03
1 34941U 26988HF  26070.40836806  .00000000  00000+0  00000-0 0  9993
2 34941 100.0000  96.0000 0000000   0.0000 276.0000 12.65579349    16
CTC1_L_00426009-04
1 34942U 23493GI  26070.40836806  .00000000  00000+0  00000-0 0  9992
2 34942 100.0000  96.0000 0000000   0.0000   6.0000 12.65579349    18
CTC1_L_00426010-01
1 34943U 22161UR  26070.40836806  .00000000  00000+0  00000-0 0  9994
2 34943 100.0000 108.0000 0000000   0.0000 108.0000 12.65579349    16
CTC1_L_00426010-02
1 34944U 22332HN  26070.40836806  .00000000  00000+0  00000-0 0  9995
2 34944 100.0000 108.0000 0000000   0.0000 198.0000 12.65579349    16
CTC1_L_00426010-03
1 34945U 26254YH  26070.40836806  .00000000  00000+0  00000-0 0  9993
2 34945 100.0000 108.0000 0000000   0.0000 288.0000 12.65579349    17
CTC1_L_00426010-04
1 34946U 23844TJ  26070.40836806  .00000000  00000+0  00000-0 0  9996
2 34946 100.0000 108.0000 0000000   0.0000  18.0000 12.65579349    19
CTC1_L_00426011-01
1 34947U 22863DR  26070.40836806  .00000000  00000+0  00000-0 0  9997
2 34947 100.0000 120.0000 0000000   0.0000 120.0000 12.65579349    18
CTC1_L_00426011-02
1 34948U 22518KO  26070.40836806  .00000000  00000+0  00000-0 0  9995
2 34948 100.0000 120.0000 0000000   0.0000 210.0000 12.65579349    19
CTC1_L_00426011-03
1 34949U 24142WF  26070.40836806  .00000000  00000+0  00000-0 0  9991
2 34949 100.0000 120.0000 0000000   0.0000 300.0000 12.65579349    10
CTC1_L_00426011-04
1 34950U 23844WK  26070.40836806  .00000000  00000+0  00000-0 0  9991
2 34950 100.0000 120.0000 0000000   0.0000  30.0000 12.65579349    12
CTC1_L_00426012-01
1 34951U 24678SJ  26070.40836806  .00000000  00000+0  00000-0 0  9998
2 34951 100.0000 132.0000 0000000   0.0000 132.0000 12.65579349    19
CTC1_L_00426012-02
1 34952U 25791TM  26070.40836806  .00000000  00000+0  00000-0 0  9996
2 34952 100.0000 132.0000 0000000   0.0000 222.0000 12.65579349    10
CTC1_L_00426012-03
1 34953U 26729ET  26070.40836806  .00000000  00000+0  00000-0 0  9999
2 34953 100.0000 132.0000 0000000   0.0000 312.0000 12.65579349    11
CTC1_L_00426012-04
1 34954U 25521NY  26070.40836806  .00000000  00000+0  00000-0 0  9999
2 34954 100.0000 132.0000 0000000   0.0000  42.0000 12.65579349    12
CTC1_L_00426013-01
1 34955U 26647TL  26070.40836806  .00000000  00000+0  00000-0 0  9990
2 34955 100.0000 144.0000 0000000   0.0000 144.0000 12.65579349    19
CTC1_L_00426013-02
1 34956U 25160KY  26070.40836806  .00000000  00000+0  00000-0 0  9990
2 34956 100.0000 144.0000 0000000   0.0000 234.0000 12.65579349    10
CTC1_L_00426013-03
1 34957U 23207RB  26070.40836806  .00000000  00000+0  00000-0 0  9991
2 34957 100.0000 144.0000 0000000   0.0000 324.0000 12.65579349    11
CTC1_L_00426013-04
1 34958U 23757MG  26070.40836806  .00000000  00000+0  00000-0 0  9992
2 34958 100.0000 144.0000 0000000   0.0000  54.0000 12.65579349    12
CTC1_L_00426014-01
1 34959U 24736JV  26070.40836806  .00000000  00000+0  00000-0 0  9991
2 34959 100.0000 156.0000 0000000   0.0000 156.0000 12.65579349    19
CTC1_L_00426014-02
1 34960U 26677BJ  26070.40836806  .00000000  00000+0  00000-0 0  9999
2 34960 100.0000 156.0000 0000000   0.0000 246.0000 12.65579349    11
CTC1_L_00426014-03
1 34961U 26777VA  26070.40836806  .00000000  00000+0  00000-0 0  9991
2 34961 100.0000 156.0000 0000000   0.0000 336.0000 12.65579349    12
CTC1_L_00426014-04
1 34962U 24549TS  26070.40836806  .00000000  00000+0  00000-0 0  9997
2 34962 100.0000 156.0000 0000000   0.0000  66.0000 12.65579349    13
CTC1_L_00426015-01
1 34963U 26663BN  26070.40836806  .00000000  00000+0  00000-0 0  9997
2 34963 100.0000 168.0000 0000000   0.0000 168.0000 12.65579349    10
CTC1_L_00426015-02
1 34964U 26294HT  26070.40836806  .00000000  00000+0  00000-0 0  9998
2 34964 100.0000 168.0000 0000000   0.0000 258.0000 12.65579349    11
CTC1_L_00426015-03
1 34965U 24644HV  26070.40836806  .00000000  00000+0  00000-0 0  9996
2 34965 100.0000 168.0000 0000000   0.0000 348.0000 12.65579349    12
CTC1_L_00426015-04
1 34966U 26078CR  26070.40836806  .00000000  00000+0  00000-0 0  9990
2 34966 100.0000 168.0000 0000000   0.0000  78.0000 12.65579349    13
CTC1_L_00426016-01
1 34967U 24685CB  26070.40836806  .00000000  00000+0  00000-0 0  9993
2 34967 100.0000 180.0000 0000000   0.0000 180.0000 12.65579349    12
CTC1_L_00426016-02
1 34968U 25427XO  26070.40836806  .00000000  00000+0  00000-0 0  9999
2 34968 100.0000 180.0000 0000000   0.0000 270.0000 12.65579349    13
